[{"OBJECT_NAME":"STARLINK-31491","OBJECT_ID":"2024-036P","EPOCH":"2026-03-09T06:28:46.954560","MEAN_MOTION":15.30188703,"ECCENTRICITY":0.00012684,"INCLINATION":53.1605,"RA_OF_ASC_NODE":80.4539,"ARG_OF_PERICENTER":93.1729,"MEAN_ANOMALY":266.9417,"EPHEMERIS_TYPE":0,"CLASSIFICATION_TYPE":"U","NORAD_CAT_ID":59011,"ELEMENT_SET_NO":999,"REV_AT_EPOCH":11525,"BSTAR":4.0748234e-5,"MEAN_MOTION_DOT":8.47e-6,"MEAN_MOTION_DDOT":0},{"OBJECT_NAME":"SL-8 DEB","OBJECT_ID":"1965-020AH","EPOCH":"2026-03-09T21:20:25.012032","MEAN_MOTION":15.12110764,"ECCENTRICITY":0.01461339,"INCLINATION":55.8593,"RA_OF_ASC_NODE":285.3244,"ARG_OF_PERICENTER":198.731,"MEAN_ANOMALY":160.8307,"EPHEMERIS_TYPE":0,"CLASSIFICATION_TYPE":"U","NORAD_CAT_ID":1392,"ELEMENT_SET_NO":999,"REV_AT_EPOCH":8107,"BSTAR":0.0016215192,"MEAN_MOTION_DOT":0.00036476,"MEAN_MOTION_DDOT":0}]
